<?xml version="1.0" encoding="UTF-8"?>
<ndm xmlns:xsi="http://www.w3.org/2001/XMLSchema-instance" xsi:noNamespaceSchemaLocation="https://sanaregistry.org/r/ndmxml_unqualified/ndmxml-2.0.0-master-2.0.xsd">
<omm id="CCSDS_OMM_VERS" version="2.0">
<header><CREATION_DATE/><ORIGINATOR/></header><body><segment><metadata><OBJECT_NAME>ONEWEB-0706</OBJECT_NAME><OBJECT_ID>2024-188T</OBJECT_ID><CENTER_NAME>EARTH</CENTER_NAME><REF_FRAME>TEME</REF_FRAME><TIME_SYSTEM>UTC</TIME_SYSTEM><MEAN_ELEMENT_THEORY>SGP4</MEAN_ELEMENT_THEORY></metadata><data><meanElements><EPOCH>2025-12-26T04:27:59.929056</EPOCH><MEAN_MOTION>13.10375401</MEAN_MOTION><ECCENTRICITY>.00011868</ECCENTRICITY><INCLINATION>87.8798</INCLINATION><RA_OF_ASC_NODE>70.7574</RA_OF_ASC_NODE><ARG_OF_PERICENTER>118.1499</ARG_OF_PERICENTER><MEAN_ANOMALY>241.9749</MEAN_ANOMALY></meanElements><tleParameters><EPHEMERIS_TYPE>0</EPHEMERIS_TYPE><CLASSIFICATION_TYPE>U</CLASSIFICATION_TYPE><NORAD_CAT_ID>61611</NORAD_CAT_ID><ELEMENT_SET_NO>999</ELEMENT_SET_NO><REV_AT_EPOCH>6072</REV_AT_EPOCH><BSTAR>.17413186E-2</BSTAR><MEAN_MOTION_DOT>.621E-5</MEAN_MOTION_DOT><MEAN_MOTION_DDOT>0</MEAN_MOTION_DDOT></tleParameters></data></segment></body></omm>
<omm id="CCSDS_OMM_VERS" version="2.0">
<header><CREATION_DATE/><ORIGINATOR/></header><body><segment><metadata><OBJECT_NAME>ONEWEB-0707</OBJECT_NAME><OBJECT_ID>2024-188U</OBJECT_ID><CENTER_NAME>EARTH</CENTER_NAME><REF_FRAME>TEME</REF_FRAME><TIME_SYSTEM>UTC</TIME_SYSTEM><MEAN_ELEMENT_THEORY>SGP4</MEAN_ELEMENT_THEORY></metadata><data><meanElements><EPOCH>2025-12-26T04:37:33.876480</EPOCH><MEAN_MOTION>13.10373465</MEAN_MOTION><ECCENTRICITY>.00011895</ECCENTRICITY><INCLINATION>87.8808</INCLINATION><RA_OF_ASC_NODE>70.7356</RA_OF_ASC_NODE><ARG_OF_PERICENTER>115.9632</ARG_OF_PERICENTER><MEAN_ANOMALY>244.1618</MEAN_ANOMALY></meanElements><tleParameters><EPHEMERIS_TYPE>0</EPHEMERIS_TYPE><CLASSIFICATION_TYPE>U</CLASSIFICATION_TYPE><NORAD_CAT_ID>61612</NORAD_CAT_ID><ELEMENT_SET_NO>999</ELEMENT_SET_NO><REV_AT_EPOCH>6066</REV_AT_EPOCH><BSTAR>.20046018E-2</BSTAR><MEAN_MOTION_DOT>.712E-5</MEAN_MOTION_DOT><MEAN_MOTION_DDOT>0</MEAN_MOTION_DDOT></tleParameters></data></segment></body></omm>
<omm id="CCSDS_OMM_VERS" version="2.0">
<header><CREATION_DATE/><ORIGINATOR/></header><body><segment><metadata><OBJECT_NAME>ONEWEB-0708</OBJECT_NAME><OBJECT_ID>2024-188V</OBJECT_ID><CENTER_NAME>EARTH</CENTER_NAME><REF_FRAME>TEME</REF_FRAME><TIME_SYSTEM>UTC</TIME_SYSTEM><MEAN_ELEMENT_THEORY>SGP4</MEAN_ELEMENT_THEORY></metadata><data><meanElements><EPOCH>2025-12-26T05:03:50.783616</EPOCH><MEAN_MOTION>13.10370482</MEAN_MOTION><ECCENTRICITY>.00019167</ECCENTRICITY><INCLINATION>87.8796</INCLINATION><RA_OF_ASC_NODE>70.7658</RA_OF_ASC_NODE><ARG_OF_PERICENTER>122.2664</ARG_OF_PERICENTER><MEAN_ANOMALY>237.8649</MEAN_ANOMALY></meanElements><tleParameters><EPHEMERIS_TYPE>0</EPHEMERIS_TYPE><CLASSIFICATION_TYPE>U</CLASSIFICATION_TYPE><NORAD_CAT_ID>61613</NORAD_CAT_ID><ELEMENT_SET_NO>999</ELEMENT_SET_NO><REV_AT_EPOCH>6064</REV_AT_EPOCH><BSTAR>.90006246E-4</BSTAR><MEAN_MOTION_DOT>.44E-6</MEAN_MOTION_DOT><MEAN_MOTION_DDOT>0</MEAN_MOTION_DDOT></tleParameters></data></segment></body></omm>
</ndm>
