ONEWEB-0706             
1 61611U 24188T   25360.18611029  .00000621  00000+0  17413-2 0  9998
2 61611  87.8798  70.7574 0001186 118.1499 241.9749 13.10375401 60729
ONEWEB-0707             
1 61612U 24188U   25360.19275320  .00000712  00000+0  20046-2 0  9997
2 61612  87.8808  70.7356 0001189 115.9632 244.1618 13.10373465 60668
ONEWEB-0708             
1 61613U 24188V   25360.21100444  .00000044  00000+0  90006-4 0  9998
2 61613  87.8796  70.7658 0001916 122.2664 237.8649 13.10370482 60641
